NORAD_CAT_ID,OBJECT_NAME,OBJECT_TYPE,EPOCH,MEAN_MOTION,ECCENTRICITY,INCLINATION,RA_OF_ASC_NODE,ARG_OF_PERICENTER,MEAN_ANOMALY,BSTAR,MEAN_MOTION_DOT,MEAN_MOTION_DDOT,TLE_LINE0,TLE_LINE1,TLE_LINE2,SEMIMAJOR_AXIS,PERIOD,APOGEE,PERIGEE,DECAYED
53741.0,STARLINK-4614,PAYLOAD,2024-07-27 11:03:03,15.0883758,0.0001338,53.2178,18.5349,85.0748,275.0397,1.9767e-05,2.7e-07,0.0,0 STARLINK-4614,1 53741U 22107AT  24209.46045957  .00000027  00000-0  19767-4 0  9992,2 53741  53.2178  18.5349 0001338  85.0748 275.0397 15.08837580104929,6917.888,95.438,540.678,538.827,0.0
53741.0,STARLINK-4614,PAYLOAD,2024-07-27 15:49:13,15.08835405,0.0001359,53.2184,17.6427,85.3701,274.7447,8.0209e-06,-1.6e-06,0.0,0 STARLINK-4614,1 53741U 22107AT  24209.65918181 -.00000160  00000-0  80209-5 0  9990,2 53741  53.2184  17.6427 0001359  85.3701 274.7447 15.08835405105734,6917.894,95.438,540.7,538.819,0.0
53741.0,STARLINK-4614,PAYLOAD,2024-07-28 17:15:23,15.08840272,0.0001393,53.2189,12.8849,85.1237,274.9914,2.2153e-06,-2.53e-06,0.0,0 STARLINK-4614,1 53741U 22107AT  24210.71901938 -.00000253  00000-0  22153-5 0  9998,2 53741  53.2189  12.8849 0001393  85.1237 274.9914 15.08840272105115,6917.88,95.438,540.708,538.781,0.0
53741.0,STARLINK-4614,PAYLOAD,2024-07-29 10:44:37,15.08838091,0.0001386,53.2191,9.6143,85.4607,274.6544,4.061e-05,3.58e-06,0.0,0 STARLINK-4614,1 53741U 22107AT  24211.44765856  .00000358  00000-0  40610-4 0  9998,2 53741  53.2191   9.6143 0001386  85.4607 274.6544 15.08838091106006,6917.886,95.438,540.71,538.792,0.0
53741.0,STARLINK-4614,PAYLOAD,2024-07-29 18:41:33,15.08838941,0.000132,53.2189,8.1269,89.8163,270.298,3.0736e-05,2.01e-06,0.0,0 STARLINK-4614,1 53741U 22107AT  24211.77885834  .00000201  00000-0  30736-4 0  9998,2 53741  53.2189   8.1269 0001320  89.8163 270.2980 15.08838941105277,6917.884,95.438,540.662,538.835,0.0
53741.0,STARLINK-4614,PAYLOAD,2024-07-30 20:07:43,15.08839217,0.0001353,53.219,3.3691,90.1989,269.9159,1.0835e-05,-1.15e-06,0.0,0 STARLINK-4614,1 53741U 22107AT  24212.83869961 -.00000115  00000-0  10835-4 0  9992,2 53741  53.2190   3.3691 0001353  90.1989 269.9159 15.08839217105430,6917.883,95.438,540.684,538.812,0.0
53741.0,STARLINK-4614,PAYLOAD,2024-07-31 13:36:58,15.08835878,0.0001304,53.2177,0.0976,89.1226,270.9916,3.8719e-06,-2.26e-06,0.0,0 STARLINK-4614,1 53741U 22107AT  24213.56734255 -.00000226  00000-0  38719-5 0  9995,2 53741  53.2177   0.0976 0001304  89.1226 270.9916 15.08835878106324,6917.893,95.438,540.66,538.856,0.0
53741.0,STARLINK-4614,PAYLOAD,2024-07-31 16:47:44,15.08836799,0.0001292,53.2185,359.503,88.9075,271.2066,1.3651e-05,-7.1e-07,0.0,0 STARLINK-4614,1 53741U 22107AT  24213.69982197 -.00000071  00000-0  13651-4 0  9994,2 53741  53.2185 359.5030 0001292  88.9075 271.2066 15.08836799106346,6917.89,95.438,540.649,538.861,0.0
53741.0,STARLINK-4614,PAYLOAD,2024-08-01 10:16:59,15.08835233,0.0001229,53.2184,356.2313,85.4509,274.6624,1.9481e-05,2.2e-07,0.0,0 STARLINK-4614,1 53741U 22107AT  24214.42846410  .00000022  00000-0  19481-4 0  9995,2 53741  53.2184 356.2313 0001229  85.4509 274.6624 15.08835233105671,6917.895,95.438,540.61,538.91,0.0
53741.0,STARLINK-4614,PAYLOAD,2024-08-02 02:10:50,15.08842772,0.0001299,53.219,353.2586,86.1535,273.9606,6.898e-05,8.1e-06,0.0,0 STARLINK-4614,1 53741U 22107AT  24215.09085787  .00000810  00000-0  68980-4 0  9994,2 53741  53.2190 353.2586 0001299  86.1535 273.9606 15.08842772105770,6917.872,95.437,540.636,538.838,0.0
53741.0,STARLINK-4614,PAYLOAD,2024-08-02 14:53:55,15.08839717,0.0001355,53.2197,350.881,90.6446,269.4701,4.4785e-05,4.25e-06,0.0,0 STARLINK-4614,1 53741U 22107AT  24215.62078098  .00000425  00000-0  44785-4 0  9999,2 53741  53.2197 350.8810 0001355  90.6446 269.4701 15.08839717106631,6917.881,95.438,540.684,538.809,0.0
53741.0,STARLINK-4614,PAYLOAD,2024-08-02 19:40:04,15.08842304,0.0001339,53.2189,349.988,86.7759,273.3386,6.3804e-05,7.28e-06,0.0,0 STARLINK-4614,1 53741U 22107AT  24215.81949849  .00000728  00000-0  63804-4 0  9990,2 53741  53.2189 349.9880 0001339  86.7759 273.3386 15.08842304106665,6917.873,95.437,540.665,538.812,0.0
53741.0,STARLINK-4614,PAYLOAD,2024-08-03 13:09:20,15.08833021,0.0001526,53.2178,346.7169,82.3273,277.7893,-6.3463e-05,-1.298e-05,0.0,0 STARLINK-4614,1 53741U 22107AT  24216.54815008 -.00001298  00000-0 -63463-4 0  9996,2 53741  53.2178 346.7169 0001526  82.3273 277.7893 15.08833021105991,6917.902,95.438,540.822,538.711,0.0
53741.0,STARLINK-4614,PAYLOAD,2024-08-03 14:44:43,15.08832991,0.0001532,53.2184,346.4196,82.7391,277.3775,-6.8519e-05,-1.378e-05,0.0,0 STARLINK-4614,1 53741U 22107AT  24216.61439054 -.00001378  00000-0 -68519-4 0  9993,2 53741  53.2184 346.4196 0001532  82.7391 277.3775 15.08832991106785,6917.902,95.438,540.827,538.707,0.0
53741.0,STARLINK-4614,PAYLOAD,2024-08-03 16:20:06,15.08832853,0.000145,53.2181,346.1223,82.1459,277.9697,-7.1657e-05,-1.428e-05,0.0,0 STARLINK-4614,1 53741U 22107AT  24216.68063077 -.00001428  00000-0 -71657-4 0  9991,2 53741  53.2181 346.1223 0001450  82.1459 277.9697 15.08832853106795,6917.902,95.438,540.77,538.764,0.0
53741.0,STARLINK-4614,PAYLOAD,2024-08-04 13:00:06,15.08839212,0.0001404,53.2186,342.257,85.0416,275.0736,1.4042e-05,-6.4e-07,0.0,0 STARLINK-4614,1 53741U 22107AT  24217.54174505 -.00000064  00000-0  14042-4 0  9995,2 53741  53.2186 342.2570 0001404  85.0416 275.0736 15.08839212106144,6917.883,95.438,540.719,538.777,0.0
53741.0,STARLINK-4614,PAYLOAD,2024-08-04 14:35:29,15.08840342,0.0001318,53.2178,341.9596,86.6041,273.5102,2.6494e-05,1.34e-06,0.0,0 STARLINK-4614,1 53741U 22107AT  24217.60798360  .00000134  00000-0  26494-4 0  9994,2 53741  53.2178 341.9596 0001318  86.6041 273.5102 15.08840342106937,6917.879,95.438,540.656,538.833,0.0
53741.0,STARLINK-4614,PAYLOAD,2024-08-04 17:46:15,15.08842665,0.0001268,53.2182,341.3632,92.1415,267.9722,2.2001e-05,6.2e-07,0.0,0 STARLINK-4614,1 53741U 22107AT  24217.74046197  .00000062  00000-0  22001-4 0  9993,2 53741  53.2182 341.3632 0001268  92.1415 267.9722 15.08842665106955,6917.872,95.437,540.614,538.86,0.0
53741.0,STARLINK-4614,PAYLOAD,2024-08-05 14:26:17,15.08834095,0.0001251,53.2184,337.4976,91.4338,268.6798,4.0637e-05,3.59e-06,0.0,0 STARLINK-4614,1 53741U 22107AT  24218.60158751  .00000359  00000-0  40637-4 0  9993,2 53741  53.2184 337.4976 0001251  91.4338 268.6798 15.08834095106300,6917.898,95.438,540.629,538.898,0.0
53741.0,STARLINK-4614,PAYLOAD,2024-08-06 14:17:04,15.08835551,0.0001366,53.2188,333.0393,87.8504,272.2645,-1.3199e-06,-3.09e-06,0.0,0 STARLINK-4614,1 53741U 22107AT  24219.59519167 -.00000309  00000-0 -13199-5 0  9995,2 53741  53.2188 333.0393 0001366  87.8504 272.2645 15.08835551107233,6917.894,95.438,540.704,538.814,0.0
53741.0,STARLINK-4614,PAYLOAD,2024-08-07 12:32:28,15.08838354,0.0001385,53.2191,328.8761,86.096,274.019,5.921e-05,6.54e-06,0.0,0 STARLINK-4614,1 53741U 22107AT  24220.52254854  .00000654  00000-0  59210-4 0  9993,2 53741  53.2191 328.8761 0001385  86.0960 274.0190 15.08838354106593,6917.885,95.438,540.709,538.792,0.0
53741.0,STARLINK-4614,PAYLOAD,2024-08-08 12:23:15,15.0883533,0.0001379,53.2192,324.4159,85.4066,274.7083,3.2699e-05,2.32e-06,0.0,0 STARLINK-4614,1 53741U 22107AT  24221.51615286  .00000232  00000-0  32699-4 0  9997,2 53741  53.2192 324.4159 0001379  85.4066 274.7083 15.08835330107523,6917.895,95.438,540.714,538.806,0.0
53741.0,STARLINK-4614,PAYLOAD,2024-08-09 05:52:30,15.08839062,0.0001368,53.2192,321.1444,90.6991,269.4158,-3.49e-06,-3.43e-06,0.0,0 STARLINK-4614,1 53741U 22107AT  24222.24479280 -.00000343  00000-0 -34900-5 0  9993,2 53741  53.2192 321.1444 0001368  90.6991 269.4158 15.08839062106852,6917.883,95.438,540.695,538.802,0.0
53741.0,STARLINK-4614,PAYLOAD,2024-08-09 13:49:25,15.08839004,0.0001322,53.219,319.6574,86.1456,273.9687,-4.1676e-06,-3.54e-06,0.0,0 STARLINK-4614,1 53741U 22107AT  24222.57599324 -.00000354  00000-0 -41676-5 0  9991,2 53741  53.2190 319.6574 0001322  86.1456 273.9687 15.08839004107687,6917.883,95.438,540.663,538.834,0.0
53741.0,STARLINK-4614,PAYLOAD,2024-08-10 12:04:49,15.08836529,0.0001297,53.2186,315.4943,82.0235,278.0904,3.0514e-05,1.98e-06,0.0,0 STARLINK-4614,1 53741U 22107AT  24223.50335477  .00000198  00000-0  30514-4 0  9994,2 53741  53.2186 315.4943 0001297  82.0235 278.0904 15.08836529107044,6917.891,95.438,540.653,538.859,0.0
53741.0,STARLINK-4614,PAYLOAD,2024-08-10 13:40:12,15.08836911,0.0001295,53.2185,315.197,82.6679,277.446,3.3024e-05,2.38e-06,0.0,0 STARLINK-4614,1 53741U 22107AT  24223.56959456  .00000238  00000-0  33024-4 0  9993,2 53741  53.2185 315.1970 0001295  82.6679 277.4460 15.08836911107838,6917.89,95.438,540.651,538.859,0.0
53741.0,STARLINK-4614,PAYLOAD,2024-08-11 15:06:22,15.0884361,0.000137,53.2187,310.4397,83.7138,276.401,8.7301e-05,1.102e-05,0.0,0 STARLINK-4614,1 53741U 22107AT  24224.62942983  .00001102  00000-0  87301-4 0  9996,2 53741  53.2187 310.4397 0001370  83.7138 276.4010 15.08843610107213,6917.869,95.437,540.682,538.787,0.0
53741.0,STARLINK-4614,PAYLOAD,2024-08-12 11:46:23,15.08843192,0.0001407,53.2179,306.5728,94.2736,265.8417,5.5835e-05,6.01e-06,0.0,0 STARLINK-4614,1 53741U 22107AT  24225.49054976  .00000601  00000-0  55835-4 0  9998,2 53741  53.2179 306.5728 0001407  94.2736 265.8417 15.08843192108129,6917.871,95.437,540.709,538.762,0.0
53741.0,STARLINK-4614,PAYLOAD,2024-08-12 14:57:09,15.0884217,0.0001372,53.218,305.9782,96.505,263.6099,4.6496e-05,4.52e-06,0.0,0 STARLINK-4614,1 53741U 22107AT  24225.62303031  .00000452  00000-0  46496-4 0  9999,2 53741  53.2180 305.9782 0001372  96.5050 263.6099 15.08842170108148,6917.874,95.437,540.688,538.79,0.0
53741.0,STARLINK-4614,PAYLOAD,2024-08-13 05:15:36,15.08853495,5.82e-05,53.2189,303.304,40.9032,319.2004,0.00011881,1.604e-05,0.0,0 STARLINK-4614,1 53741U 22107AT  24226.21917374  .00001604  00000-0  11881-3 0  9995,2 53741  53.2189 303.3040 0000582  40.9032 319.2004 15.08853495107450,6917.839,95.437,540.107,539.302,0.0
